start=new Date('2022-01-27T00:00:00.000Z').valueOf();
sats=[{"ELEMENT_SET_NO":"999","CLASSIFICATION_TYPE":"U","MEAN_MOTION_DOT":"-0.00000128","COUNTRY_CODE":"US","OBJECT_ID":"2020-062AC","PERIOD":"95.592","EPOCH":"2022-01-26T19:21:22.546080","REV_AT_EPOCH":"7825","OBJECT_TYPE":"PAYLOAD","BSTAR":"0.00001033900000","CENTER_NAME":"EARTH","RA_OF_ASC_NODE":"263.3178","MEAN_MOTION_DDOT":"0.0000000000000","OBJECT_NAME":"STARLINK-1646","LAUNCH_DATE":"2020-09-03","MEAN_MOTION":"15.06409965","FILE":"3284323","TIME_SYSTEM":"UTC","REF_FRAME":"TEME","DECAY_DATE":null,"MEAN_ELEMENT_THEORY":"SGP4","GP_ID":"194684068","MEAN_ANOMALY":"294.3970","SEMIMAJOR_AXIS":"6925.318","EPHEMERIS_TYPE":"0","PERIAPSIS":"545.668","NORAD_CAT_ID":"46351","TLE_LINE2":"2 46351  53.0526 263.3178 0002187  65.7247 294.3970 15.06409965 78252","ECCENTRICITY":"0.00021870","ARG_OF_PERICENTER":"65.7247","SITE":"AFETR","INCLINATION":"53.0526","APOAPSIS":"548.698","TLE_LINE1":"1 46351U 20062AC  22026.80651095 -.00000128  00000-0  10339-4 0  9997","RCS_SIZE":"LARGE"},{"SEMIMAJOR_AXIS":"6925.326","EPHEMERIS_TYPE":"0","MEAN_ANOMALY":"291.0972","PERIAPSIS":"545.994","NORAD_CAT_ID":"46352","ECCENTRICITY":"0.00017280","TLE_LINE2":"2 46352  53.0542 265.1877 0001728  69.0202 291.0972 15.06407360 78012","APOAPSIS":"548.388","INCLINATION":"53.0542","SITE":"AFETR","ARG_OF_PERICENTER":"69.0202","RCS_SIZE":"LARGE","TLE_LINE1":"1 46352U 20062AD  22026.38999114  .00000598  00000-0  59038-4 0  9997","ELEMENT_SET_NO":"999","CLASSIFICATION_TYPE":"U","OBJECT_ID":"2020-062AD","COUNTRY_CODE":"US","MEAN_MOTION_DOT":"0.00000598","REV_AT_EPOCH":"7801","PERIOD":"95.592","EPOCH":"2022-01-26T09:21:35.234496","BSTAR":"0.00005903800000","OBJECT_TYPE":"PAYLOAD","OBJECT_NAME":"STARLINK-1653","MEAN_MOTION_DDOT":"0.0000000000000","RA_OF_ASC_NODE":"265.1877","CENTER_NAME":"EARTH","FILE":"3284266","MEAN_MOTION":"15.06407360","TIME_SYSTEM":"UTC","LAUNCH_DATE":"2020-09-03","REF_FRAME":"TEME","DECAY_DATE":null,"GP_ID":"194680995","MEAN_ELEMENT_THEORY":"SGP4"},{"NORAD_CAT_ID":"46353","PERIAPSIS":"545.907","SEMIMAJOR_AXIS":"6925.349","EPHEMERIS_TYPE":"0","MEAN_ANOMALY":"291.5854","RCS_SIZE":"LARGE","TLE_LINE1":"1 46353U 20062AE  22026.12277439 -.00001013  00000-0 -49104-4 0  9997","APOAPSIS":"548.522","SITE":"AFETR","INCLINATION":"53.0554","ARG_OF_PERICENTER":"68.5336","ECCENTRICITY":"0.00018880","TLE_LINE2":"2 46353  53.0554 286.3992 0001888  68.5336 291.5854 15.06399745 77681","BSTAR":"-0.00004910400000","OBJECT_TYPE":"PAYLOAD","REV_AT_EPOCH":"7768","EPOCH":"2022-01-26T02:56:47.707296","PERIOD":"95.592","OBJECT_ID":"2020-062AE","COUNTRY_CODE":"US","MEAN_MOTION_DOT":"-0.00001013","ELEMENT_SET_NO":"999","CLASSIFICATION_TYPE":"U","GP_ID":"194679244","MEAN_ELEMENT_THEORY":"SGP4","REF_FRAME":"TEME","DECAY_DATE":null,"FILE":"3284266","MEAN_MOTION":"15.06399745","TIME_SYSTEM":"UTC","LAUNCH_DATE":"2020-09-03","MEAN_MOTION_DDOT":"0.0000000000000","OBJECT_NAME":"STARLINK-1656","RA_OF_ASC_NODE":"286.3992","CENTER_NAME":"EARTH"},{"TLE_LINE2":"2 46354  53.0533 284.9453 0001934  65.8722 294.2469 15.06399128 77919","ECCENTRICITY":"0.00019340","ARG_OF_PERICENTER":"65.8722","INCLINATION":"53.0533","SITE":"AFETR","APOAPSIS":"548.556","TLE_LINE1":"1 46354U 20062AF  22026.44344175  .00003863  00000-0  27812-3 0  9999","RCS_SIZE":"LARGE","MEAN_ANOMALY":"294.2469","SEMIMAJOR_AXIS":"6925.351","EPHEMERIS_TYPE":"0","PERIAPSIS":"545.877","NORAD_CAT_ID":"46354","CENTER_NAME":"EARTH","RA_OF_ASC_NODE":"284.9453","OBJECT_NAME":"STARLINK-1657","MEAN_MOTION_DDOT":"0.0000000000000","LAUNCH_DATE":"2020-09-03","FILE":"3284316","MEAN_MOTION":"15.06399128","TIME_SYSTEM":"UTC","REF_FRAME":"TEME","DECAY_DATE":null,"MEAN_ELEMENT_THEORY":"SGP4","GP_ID":"194684151","ELEMENT_SET_NO":"999","CLASSIFICATION_TYPE":"U","COUNTRY_CODE":"US","MEAN_MOTION_DOT":"0.00003863","OBJECT_ID":"2020-062AF","EPOCH":"2022-01-26T10:38:33.367200","PERIOD":"95.592","REV_AT_EPOCH":"7791","BSTAR":"0.00027812000000","OBJECT_TYPE":"PAYLOAD"},{"FILE":"3284266","MEAN_MOTION":"15.06401624","TIME_SYSTEM":"UTC","LAUNCH_DATE":"2020-09-03","MEAN_MOTION_DDOT":"0.0000000000000","OBJECT_NAME":"STARLINK-1661","CENTER_NAME":"EARTH","RA_OF_ASC_NODE":"285.0701","GP_ID":"194680246","MEAN_ELEMENT_THEORY":"SGP4","REF_FRAME":"TEME","DECAY_DATE":null,"OBJECT_ID":"2020-062AG","MEAN_MOTION_DOT":"-0.00000162","COUNTRY_CODE":"US","ELEMENT_SET_NO":"999","CLASSIFICATION_TYPE":"U","BSTAR":"0.00000800630000","OBJECT_TYPE":"PAYLOAD","EPOCH":"2022-01-26T10:01:24.557376","PERIOD":"95.592","REV_AT_EPOCH":"7773","INCLINATION":"53.0553","SITE":"AFETR","APOAPSIS":"548.369","ARG_OF_PERICENTER":"71.4482","TLE_LINE2":"2 46355  53.0553 285.0701 0001676  71.4482 288.6689 15.06401624 77735","ECCENTRICITY":"0.00016760","RCS_SIZE":"LARGE","TLE_LINE1":"1 46355U 20062AG  22026.41764534 -.00000162  00000-0  80063-5 0  9991","PERIAPSIS":"546.048","MEAN_ANOMALY":"288.6689","EPHEMERIS_TYPE":"0","SEMIMAJOR_AXIS":"6925.344","NORAD_CAT_ID":"46355"},{"MEAN_MOTION_DOT":"0.00001153","COUNTRY_CODE":"US","OBJECT_ID":"2020-062AH","ELEMENT_SET_NO":"999","CLASSIFICATION_TYPE":"U","OBJECT_TYPE":"PAYLOAD","BSTAR":"0.00009626800000","EPOCH":"2022-01-26T10:17:19.285152","PERIOD":"95.592","REV_AT_EPOCH":"7773","LAUNCH_DATE":"2020-09-03","MEAN_MOTION":"15.06403426","FILE":"3284266","TIME_SYSTEM":"UTC","CENTER_NAME":"EARTH","RA_OF_ASC_NODE":"285.0212","MEAN_MOTION_DDOT":"0.0000000000000","OBJECT_NAME":"STARLINK-1665","MEAN_ELEMENT_THEORY":"SGP4","GP_ID":"194680496","REF_FRAME":"TEME","DECAY_DATE":null,"PERIAPSIS":"545.929","MEAN_ANOMALY":"289.7815","EPHEMERIS_TYPE":"0","SEMIMAJOR_AXIS":"6925.338","NORAD_CAT_ID":"46356","ARG_OF_PERICENTER":"70.3373","SITE":"AFETR","INCLINATION":"53.0539","APOAPSIS":"548.477","TLE_LINE2":"2 46356  53.0539 285.0212 0001840  70.3373 289.7815 15.06403426 77732","ECCENTRICITY":"0.00018400","TLE_LINE1":"1 46356U 20062AH  22026.42869543  .00001153  00000-0  96268-4 0  9992","RCS_SIZE":"LARGE"},{"TLE_LINE1":"1 46357U 20062AJ  22026.36051703  .00000207  00000-0  32829-4 0  9999","RCS_SIZE":"LARGE","ARG_OF_PERICENTER":"57.4388","APOAPSIS":"548.512","SITE":"AFETR","INCLINATION":"53.0530","ECCENTRICITY":"0.00018430","TLE_LINE2":"2 46357  53.0530 265.3355 0001843  57.4388 302.6779 15.06392892 78007","NORAD_CAT_ID":"46357","PERIAPSIS":"545.959","SEMIMAJOR_AXIS":"6925.370","EPHEMERIS_TYPE":"0","MEAN_ANOMALY":"302.6779","MEAN_ELEMENT_THEORY":"SGP4","GP_ID":"194679744","DECAY_DATE":null,"REF_FRAME":"TEME","LAUNCH_DATE":"2020-09-03","FILE":"3284266","TIME_SYSTEM":"UTC","MEAN_MOTION":"15.06392892","RA_OF_ASC_NODE":"265.3355","CENTER_NAME":"EARTH","OBJECT_NAME":"STARLINK-1666","MEAN_MOTION_DDOT":"0.0000000000000","BSTAR":"0.00003282900000","OBJECT_TYPE":"PAYLOAD","REV_AT_EPOCH":"7800","PERIOD":"95.593","EPOCH":"2022-01-26T08:39:08.671392","COUNTRY_CODE":"US","MEAN_MOTION_DOT":"0.00000207","OBJECT_ID":"2020-062AJ","CLASSIFICATION_TYPE":"U","ELEMENT_SET_NO":"999"},{"REF_FRAME":"TEME","DECAY_DATE":null,"GP_ID":"194679495","MEAN_ELEMENT_THEORY":"SGP4","MEAN_MOTION_DDOT":"0.0000000000000","OBJECT_NAME":"STARLINK-1690","RA_OF_ASC_NODE":"285.1132","CENTER_NAME":"EARTH","FILE":"3284266","MEAN_MOTION":"15.06396258","TIME_SYSTEM":"UTC","LAUNCH_DATE":"2020-09-03","REV_AT_EPOCH":"7773","PERIOD":"95.592","EPOCH":"2022-01-26T09:45:28.869696","OBJECT_TYPE":"PAYLOAD","BSTAR":"-0.00000704950000","ELEMENT_SET_NO":"999","CLASSIFICATION_TYPE":"U","OBJECT_ID":"2020-062AK","MEAN_MOTION_DOT":"-0.00000387","COUNTRY_CODE":"US","RCS_SIZE":"LARGE","TLE_LINE1":"1 46358U 20062AK  22026.40658414 -.00000387  00000-0 -70495-5 0  9990","ECCENTRICITY":"0.00017920","TLE_LINE2":"2 46358  53.0539 285.1132 0001792  66.7092 293.4085 15.06396258 77734","APOAPSIS":"548.466","SITE":"AFETR","INCLINATION":"53.0539","ARG_OF_PERICENTER":"66.7092","NORAD_CAT_ID":"46358","SEMIMAJOR_AXIS":"6925.360","EPHEMERIS_TYPE":"0","MEAN_ANOMALY":"293.4085","PERIAPSIS":"545.984"},{"CLASSIFICATION_TYPE":"U","ELEMENT_SET_NO":"999","COUNTRY_CODE":"US","MEAN_MOTION_DOT":"-0.00001247","OBJECT_ID":"2020-062AL","REV_AT_EPOCH":"7834","PERIOD":"95.591","EPOCH":"2022-01-26T07:41:23.838720","OBJECT_TYPE":"PAYLOAD","BSTAR":"-0.00006479700000","RA_OF_ASC_NODE":"240.5109","CENTER_NAME":"EARTH","MEAN_MOTION_DDOT":"0.0000000000000","OBJECT_NAME":"STARLINK-1707","LAUNCH_DATE":"2020-09-03","FILE":"3284266","TIME_SYSTEM":"UTC","MEAN_MOTION":"15.06414611","REF_FRAME":"TEME","DECAY_DATE":null,"MEAN_ELEMENT_THEORY":"SGP4","GP_ID":"194680746","SEMIMAJOR_AXIS":"6925.304","EPHEMERIS_TYPE":"0","MEAN_ANOMALY":"300.8275","PERIAPSIS":"545.816","NORAD_CAT_ID":"46359","ECCENTRICITY":"0.00019540","TLE_LINE2":"2 46359  53.0538 240.5109 0001954  59.2906 300.8275 15.06414611 78340","ARG_OF_PERICENTER":"59.2906","APOAPSIS":"548.522","SITE":"AFETR","INCLINATION":"53.0538","TLE_LINE1":"1 46359U 20062AL  22026.32041480 -.00001247  00000-0 -64797-4 0  9994","RCS_SIZE":"LARGE"},{"OBJECT_ID":"2020-062AM","COUNTRY_CODE":"US","MEAN_MOTION_DOT":"-0.00000260","ELEMENT_SET_NO":"999","CLASSIFICATION_TYPE":"U","BSTAR":"0.00000146130000","OBJECT_TYPE":"PAYLOAD","PERIOD":"95.592","EPOCH":"2022-01-26T01:51:07.101792","REV_AT_EPOCH":"7831","FILE":"3284266","MEAN_MOTION":"15.06397342","TIME_SYSTEM":"UTC","LAUNCH_DATE":"2020-09-03","MEAN_MOTION_DDOT":"0.0000000000000","OBJECT_NAME":"STARLINK-1713","CENTER_NAME":"EARTH","RA_OF_ASC_NODE":"241.6048","GP_ID":"194680996","MEAN_ELEMENT_THEORY":"SGP4","REF_FRAME":"TEME","DECAY_DATE":null,"PERIAPSIS":"545.917","MEAN_ANOMALY":"296.1951","EPHEMERIS_TYPE":"0","SEMIMAJOR_AXIS":"6925.357","NORAD_CAT_ID":"46360","SITE":"AFETR","INCLINATION":"53.0536","APOAPSIS":"548.526","ARG_OF_PERICENTER":"63.9232","TLE_LINE2":"2 46360  53.0536 241.6048 0001884  63.9232 296.1951 15.06397342 78316","ECCENTRICITY":"0.00018840","RCS_SIZE":"LARGE","TLE_LINE1":"1 46360U 20062AM  22026.07716553 -.00000260  00000-0  14613-5 0  9994"}];
